{
  "type": "FeatureCollection",
  "features": [
    {
      "type": "Feature",
      "geometry": {
        "type": "Polygon",
        "coordinates": [
          [
            [
              12.75,
              11.9
            ],
            [
              14.1,
              12.55
            ],
            [
              15.1,
              12.1
            ],
            [
              15.25,
              10.6
            ],
            [
              14.6,
              9.95
            ],
            [
              13.9,
              10.05
            ],
            [
              13.0,
              10.25
            ],
            [
              12.8,
              11.0
            ],
            [
              12.75,
              11.9
            ]
          ]
        ]
      },
      "properties": {
        "nom": "Extrême-Nord",
        "chef_lieu": "Maroua",
        "precision": "Limites simplifiées — données de démonstration"
      }
    },
    {
      "type": "Feature",
      "geometry": {
        "type": "Polygon",
        "coordinates": [
          [
            [
              12.85,
              10.3
            ],
            [
              13.9,
              10.1
            ],
            [
              14.6,
              10.0
            ],
            [
              15.1,
              9.9
            ],
            [
              15.0,
              8.1
            ],
            [
              14.0,
              7.95
            ],
            [
              12.95,
              8.3
            ],
            [
              12.85,
              10.3
            ]
          ]
        ]
      },
      "properties": {
        "nom": "Nord",
        "chef_lieu": "Garoua",
        "precision": "Limites simplifiées — données de démonstration"
      }
    },
    {
      "type": "Feature",
      "geometry": {
        "type": "Polygon",
        "coordinates": [
          [
            [
              12.3,
              8.35
            ],
            [
              13.95,
              7.98
            ],
            [
              15.0,
              8.05
            ],
            [
              14.85,
              6.35
            ],
            [
              13.6,
              5.9
            ],
            [
              12.55,
              6.3
            ],
            [
              12.1,
              7.2
            ],
            [
              12.3,
              8.35
            ]
          ]
        ]
      },
      "properties": {
        "nom": "Adamaoua",
        "chef_lieu": "Ngaoundéré",
        "precision": "Limites simplifiées — données de démonstration"
      }
    },
    {
      "type": "Feature",
      "geometry": {
        "type": "Polygon",
        "coordinates": [
          [
            [
              13.55,
              6.0
            ],
            [
              14.85,
              6.1
            ],
            [
              16.1,
              5.1
            ],
            [
              16.0,
              3.1
            ],
            [
              15.0,
              2.6
            ],
            [
              14.0,
              3.0
            ],
            [
              13.6,
              3.9
            ],
            [
              13.1,
              4.9
            ],
            [
              13.55,
              6.0
            ]
          ]
        ]
      },
      "properties": {
        "nom": "Est",
        "chef_lieu": "Bertoua",
        "precision": "Limites simplifiées — données de démonstration"
      }
    },
    {
      "type": "Feature",
      "geometry": {
        "type": "Polygon",
        "coordinates": [
          [
            [
              10.75,
              5.3
            ],
            [
              12.1,
              5.5
            ],
            [
              12.9,
              4.85
            ],
            [
              12.85,
              3.9
            ],
            [
              12.4,
              3.0
            ],
            [
              11.3,
              2.9
            ],
            [
              10.9,
              3.6
            ],
            [
              10.55,
              4.4
            ],
            [
              10.75,
              5.3
            ]
          ]
        ]
      },
      "properties": {
        "nom": "Centre",
        "chef_lieu": "Yaoundé",
        "precision": "Limites simplifiées — données de démonstration"
      }
    },
    {
      "type": "Feature",
      "geometry": {
        "type": "Polygon",
        "coordinates": [
          [
            [
              9.95,
              2.55
            ],
            [
              10.9,
              2.85
            ],
            [
              12.35,
              2.95
            ],
            [
              12.95,
              2.45
            ],
            [
              12.4,
              1.95
            ],
            [
              11.3,
              1.65
            ],
            [
              10.45,
              1.9
            ],
            [
              9.85,
              2.2
            ],
            [
              9.95,
              2.55
            ]
          ]
        ]
      },
      "properties": {
        "nom": "Sud",
        "chef_lieu": "Ebolowa",
        "precision": "Limites simplifiées — données de démonstration"
      }
    },
    {
      "type": "Feature",
      "geometry": {
        "type": "Polygon",
        "coordinates": [
          [
            [
              9.35,
              5.05
            ],
            [
              10.3,
              5.15
            ],
            [
              10.75,
              4.65
            ],
            [
              10.85,
              3.7
            ],
            [
              10.1,
              3.35
            ],
            [
              9.55,
              3.45
            ],
            [
              9.3,
              4.1
            ],
            [
              9.35,
              5.05
            ]
          ]
        ]
      },
      "properties": {
        "nom": "Littoral",
        "chef_lieu": "Douala",
        "precision": "Limites simplifiées — données de démonstration"
      }
    },
    {
      "type": "Feature",
      "geometry": {
        "type": "Polygon",
        "coordinates": [
          [
            [
              9.9,
              6.15
            ],
            [
              10.85,
              6.2
            ],
            [
              11.15,
              5.55
            ],
            [
              10.9,
              4.95
            ],
            [
              10.15,
              4.95
            ],
            [
              9.85,
              5.5
            ],
            [
              9.9,
              6.15
            ]
          ]
        ]
      },
      "properties": {
        "nom": "Ouest",
        "chef_lieu": "Bafoussam",
        "precision": "Limites simplifiées — données de démonstration"
      }
    },
    {
      "type": "Feature",
      "geometry": {
        "type": "Polygon",
        "coordinates": [
          [
            [
              9.7,
              6.7
            ],
            [
              10.9,
              6.7
            ],
            [
              11.05,
              6.0
            ],
            [
              10.6,
              5.75
            ],
            [
              9.95,
              5.95
            ],
            [
              9.6,
              6.3
            ],
            [
              9.7,
              6.7
            ]
          ]
        ]
      },
      "properties": {
        "nom": "Nord-Ouest",
        "chef_lieu": "Bamenda",
        "precision": "Limites simplifiées — données de démonstration"
      }
    },
    {
      "type": "Feature",
      "geometry": {
        "type": "Polygon",
        "coordinates": [
          [
            [
              8.65,
              5.4
            ],
            [
              9.65,
              5.55
            ],
            [
              9.9,
              5.1
            ],
            [
              9.75,
              4.55
            ],
            [
              9.45,
              4.25
            ],
            [
              8.95,
              4.35
            ],
            [
              8.6,
              4.85
            ],
            [
              8.65,
              5.4
            ]
          ]
        ]
      },
      "properties": {
        "nom": "Sud-Ouest",
        "chef_lieu": "Buea",
        "precision": "Limites simplifiées — données de démonstration"
      }
    }
  ]
}